[
    {
        "Altitude(m)": 605459.0041124439,
        "Argument of Periapsis(deg)": 0.0,
        "Eccentricity": 0.0,
        "Inclination(deg)": 60.0,
        "Latitude(deg)": 27.98813384989797,
        "Longitude(deg)": -62.201437881446026,
        "Mean Anomaly(deg)": 32.7273,
        "RAAN(deg)": 20.0,
        "Satellite Name": "Test1 90",
        "Satellite Number": 90,
        "Semi-Major Axis(m)": 6980739.136638005,
        "Time(s)": 0
    },
    {
        "Altitude(m)": 605535.794920532,
        "Argument of Periapsis(deg)": 0.00010418945913296404,
        "Eccentricity": 0.0,
        "Inclination(deg)": 60.0,
        "Latitude(deg)": 28.50126363594999,
        "Longitude(deg)": -61.844493564014,
        "Mean Anomaly(deg)": 33.347406145461825,
        "RAAN(deg)": 19.99957995086026,
        "Satellite Name": "Test1 90",
        "Satellite Number": 90,
        "Semi-Major Axis(m)": 6980739.136638005,
        "Time(s)": 10
    },
    {
        "Altitude(m)": 605614.2763589108,
        "Argument of Periapsis(deg)": 0.0002083789182659281,
        "Eccentricity": 0.0,
        "Inclination(deg)": 60.0,
        "Latitude(deg)": 29.013175903745992,
        "Longitude(deg)": -61.4836844244819,
        "Mean Anomaly(deg)": 33.96751229092366,
        "RAAN(deg)": 19.999159901720517,
        "Satellite Name": "Test1 90",
        "Satellite Number": 90,
        "Semi-Major Axis(m)": 6980739.136638005,
        "Time(s)": 20
    },
    {
        "Altitude(m)": 605694.3907355231,
        "Argument of Periapsis(deg)": 0.00031256837739889213,
        "Eccentricity": 0.0,
        "Inclination(deg)": 60.0,
        "Latitude(deg)": 29.523833380514706,
        "Longitude(deg)": -61.118898707199584,
        "Mean Anomaly(deg)": 34.58761843638548,
        "RAAN(deg)": 19.99873985258077,
        "Satellite Name": "Test1 90",
        "Satellite Number": 90,
        "Semi-Major Axis(m)": 6980739.136638005,
        "Time(s)": 30
    },
    {
        "Altitude(m)": 605776.0797489539,
        "Argument of Periapsis(deg)": 0.0004167578365318562,
        "Eccentricity": 0.0,
        "Inclination(deg)": 60.0,
        "Latitude(deg)": 30.03319779701786,
        "Longitude(deg)": -60.75002165021851,
        "Mean Anomaly(deg)": 35.20772458184732,
        "RAAN(deg)": 19.998319803441028,
        "Satellite Name": "Test1 90",
        "Satellite Number": 90,
        "Semi-Major Axis(m)": 6980739.136638005,
        "Time(s)": 40
    },
    {
        "Altitude(m)": 605859.2845187673,
        "Argument of Periapsis(deg)": 0.0005209472956648203,
        "Eccentricity": 0.0,
        "Inclination(deg)": 60.0,
        "Latitude(deg)": 30.54122984881504,
        "Longitude(deg)": -60.376936426474906,
        "Mean Anomaly(deg)": 35.82783072730915,
        "RAAN(deg)": 19.997899754301287,
        "Satellite Name": "Test1 90",
        "Satellite Number": 90,
        "Semi-Major Axis(m)": 6980739.136638005,
        "Time(s)": 50
    },
    {
        "Altitude(m)": 605943.9456161103,
        "Argument of Periapsis(deg)": 0.0006251367547977843,
        "Eccentricity": 0.0,
        "Inclination(deg)": 60.0,
        "Latitude(deg)": 31.04788915617187,
        "Longitude(deg)": -59.99952357192667,
        "Mean Anomaly(deg)": 36.447936872770974,
        "RAAN(deg)": 19.997479705161545,
        "Satellite Name": "Test1 90",
        "Satellite Number": 90,
        "Semi-Major Axis(m)": 6980739.136638005,
        "Time(s)": 60
    },
    {
        "Altitude(m)": 606030.003094485,
        "Argument of Periapsis(deg)": 0.0007293262139307483,
        "Eccentricity": 0.0,
        "Inclination(deg)": 60.0,
        "Latitude(deg)": 31.553134222569774,
        "Longitude(deg)": -59.61766041367885,
        "Mean Anomaly(deg)": 37.068043018232814,
        "RAAN(deg)": 19.9970596560218,
        "Satellite Name": "Test1 90",
        "Satellite Number": 90,
        "Semi-Major Axis(m)": 6980739.136638005,
        "Time(s)": 70
    },
    {
        "Altitude(m)": 606117.3965207873,
        "Argument of Periapsis(deg)": 0.0008335156730637124,
        "Eccentricity": 0.0,
        "Inclination(deg)": 60.0,
        "Latitude(deg)": 32.05692239177585,
        "Longitude(deg)": -59.23122201115351,
        "Mean Anomaly(deg)": 37.688149163694646,
        "RAAN(deg)": 19.99663960688206,
        "Satellite Name": "Test1 90",
        "Satellite Number": 90,
        "Semi-Major Axis(m)": 6980739.136638005,
        "Time(s)": 80
    },
    {
        "Altitude(m)": 606206.0650064739,
        "Argument of Periapsis(deg)": 0.0009377051321966765,
        "Eccentricity": 0.0,
        "Inclination(deg)": 60.0,
        "Latitude(deg)": 32.55920980343599,
        "Longitude(deg)": -58.84008058476965,
        "Mean Anomaly(deg)": 38.30825530915647,
        "RAAN(deg)": 19.996219557742315,
        "Satellite Name": "Test1 90",
        "Satellite Number": 90,
        "Semi-Major Axis(m)": 6980739.136638005,
        "Time(s)": 90
    },
    {
        "Altitude(m)": 606295.9472389289,
        "Argument of Periapsis(deg)": 0.0010418945913296407,
        "Eccentricity": 0.0,
        "Inclination(deg)": 60.0,
        "Latitude(deg)": 33.05995134715126,
        "Longitude(deg)": -58.444104945236894,
        "Mean Anomaly(deg)": 38.9283614546183,
        "RAAN(deg)": 19.995799508602573,
        "Satellite Name": "Test1 90",
        "Satellite Number": 90,
        "Semi-Major Axis(m)": 6980739.136638005,
        "Time(s)": 100
    },
    {
        "Altitude(m)": 606386.9815129832,
        "Argument of Periapsis(deg)": 0.0011460840504626045,
        "Eccentricity": 0.0,
        "Inclination(deg)": 60.0,
        "Latitude(deg)": 33.55910061499935,
        "Longitude(deg)": -58.04316143659837,
        "Mean Anomaly(deg)": 39.54846760008012,
        "RAAN(deg)": 19.99537945946283,
        "Satellite Name": "Test1 90",
        "Satellite Number": 90,
        "Semi-Major Axis(m)": 6980739.136638005,
        "Time(s)": 110
    },
    {
        "Altitude(m)": 606479.1057625709,
        "Argument of Periapsis(deg)": 0.0012502735095955685,
        "Eccentricity": 0.0,
        "Inclination(deg)": 60.0,
        "Latitude(deg)": 34.056609852467844,
        "Longitude(deg)": -57.63711336756967,
        "Mean Anomaly(deg)": 40.16857374554196,
        "RAAN(deg)": 19.99495941032309,
        "Satellite Name": "Test1 90",
        "Satellite Number": 90,
        "Semi-Major Axis(m)": 6980739.136638005,
        "Time(s)": 120
    },
    {
        "Altitude(m)": 606572.2575925038,
        "Argument of Periapsis(deg)": 0.0013544629687285324,
        "Eccentricity": 0.0,
        "Inclination(deg)": 60.0,
        "Latitude(deg)": 34.552429907764235,
        "Longitude(deg)": -57.22582044437329,
        "Mean Anomaly(deg)": 40.788679891003795,
        "RAAN(deg)": 19.994539361183342,
        "Satellite Name": "Test1 90",
        "Satellite Number": 90,
        "Semi-Major Axis(m)": 6980739.136638005,
        "Time(s)": 130
    },
    {
        "Altitude(m)": 606666.3743103609,
        "Argument of Periapsis(deg)": 0.0014586524278614966,
        "Eccentricity": 0.0,
        "Inclination(deg)": 60.0,
        "Latitude(deg)": 35.0465101794711,
        "Longitude(deg)": -56.80913971830018,
        "Mean Anomaly(deg)": 41.408786036465635,
        "RAAN(deg)": 19.9941193120436,
        "Satellite Name": "Test1 90",
        "Satellite Number": 90,
        "Semi-Major Axis(m)": 6980739.136638005,
        "Time(s)": 140
    },
    {
        "Altitude(m)": 606761.3929584533,
        "Argument of Periapsis(deg)": 0.0015628418869944607,
        "Eccentricity": 0.0,
        "Inclination(deg)": 60.0,
        "Latitude(deg)": 35.538798562519894,
        "Longitude(deg)": -56.38692502265766,
        "Mean Anomaly(deg)": 42.02889218192745,
        "RAAN(deg)": 19.99369926290386,
        "Satellite Name": "Test1 90",
        "Satellite Number": 90,
        "Semi-Major Axis(m)": 6980739.136638005,
        "Time(s)": 150
    },
    {
        "Altitude(m)": 606857.250345899,
        "Argument of Periapsis(deg)": 0.0016670313461274247,
        "Eccentricity": 0.0,
        "Inclination(deg)": 60.0,
        "Latitude(deg)": 36.02924139245868,
        "Longitude(deg)": -55.959026412418964,
        "Mean Anomaly(deg)": 42.64899832738929,
        "RAAN(deg)": 19.99327921376412,
        "Satellite Name": "Test1 90",
        "Satellite Number": 90,
        "Semi-Major Axis(m)": 6980739.136638005,
        "Time(s)": 160
    },
    {
        "Altitude(m)": 606953.8830807101,
        "Argument of Periapsis(deg)": 0.0017712208052603888,
        "Eccentricity": 0.0,
        "Inclination(deg)": 60.0,
        "Latitude(deg)": 36.517783387991464,
        "Longitude(deg)": -55.525291119936114,
        "Mean Anomaly(deg)": 43.26910447285112,
        "RAAN(deg)": 19.992859164624374,
        "Satellite Name": "Test1 90",
        "Satellite Number": 90,
        "Semi-Major Axis(m)": 6980739.136638005,
        "Time(s)": 170
    },
    {
        "Altitude(m)": 607051.2276019672,
        "Argument of Periapsis(deg)": 0.001875410264393353,
        "Eccentricity": 0.0,
        "Inclination(deg)": 60.0,
        "Latitude(deg)": 37.00436759177712,
        "Longitude(deg)": -55.08556300151329,
        "Mean Anomaly(deg)": 43.889210618312944,
        "RAAN(deg)": 19.99243911548463,
        "Satellite Name": "Test1 90",
        "Satellite Number": 90,
        "Semi-Major Axis(m)": 6980739.136638005,
        "Time(s)": 180
    },
    {
        "Altitude(m)": 607149.2202119901,
        "Argument of Periapsis(deg)": 0.0019795997235263173,
        "Eccentricity": 0.0,
        "Inclination(deg)": 60.0,
        "Latitude(deg)": 37.488935309477,
        "Longitude(deg)": -54.63968198830638,
        "Mean Anomaly(deg)": 44.50931676377477,
        "RAAN(deg)": 19.992019066344888,
        "Satellite Name": "Test1 90",
        "Satellite Number": 90,
        "Semi-Major Axis(m)": 6980739.136638005,
        "Time(s)": 190
    }
]